[
    {
        "Altitude(m)": 708225.1228698458,
        "Argument of Periapsis(deg)": 0.0034170363559881197,
        "Eccentricity": 0.0,
        "Inclination(deg)": 45.0,
        "Latitude(deg)": -20.37845619907966,
        "Longitude(deg)": 98.1060568375653,
        "Mean Anomaly(deg)": -29.267335005755793,
        "RAAN(deg)": 219.99677441756256,
        "Satellite Name": "Constellation 1 988",
        "Satellite Number": 988,
        "Semi-Major Axis(m)": 7083131.272910544,
        "Time(s)": 57
    },
    {
        "Altitude(m)": 708211.9371266369,
        "Argument of Periapsis(deg)": 0.003476984362233526,
        "Eccentricity": 0.0,
        "Inclination(deg)": 45.0,
        "Latitude(deg)": -20.33838168527433,
        "Longitude(deg)": 98.15061498344807,
        "Mean Anomaly(deg)": -29.206633865505832,
        "RAAN(deg)": 219.99671782839695,
        "Satellite Name": "Constellation 1 988",
        "Satellite Number": 988,
        "Semi-Major Axis(m)": 7083131.272910544,
        "Time(s)": 58
    },
    {
        "Altitude(m)": 708198.7591724267,
        "Argument of Periapsis(deg)": 0.003536932368478932,
        "Eccentricity": 0.0,
        "Inclination(deg)": 45.0,
        "Latitude(deg)": -20.29829335294313,
        "Longitude(deg)": 98.19514800781934,
        "Mean Anomaly(deg)": -29.145932725255868,
        "RAAN(deg)": 219.9966612392314,
        "Satellite Name": "Constellation 1 988",
        "Satellite Number": 988,
        "Semi-Major Axis(m)": 7083131.272910544,
        "Time(s)": 59
    },
    {
        "Altitude(m)": 708185.5890501156,
        "Argument of Periapsis(deg)": 0.003596880374724337,
        "Eccentricity": 0.0,
        "Inclination(deg)": 45.0,
        "Latitude(deg)": -20.258191238104367,
        "Longitude(deg)": 98.23965630488964,
        "Mean Anomaly(deg)": -29.08523158500611,
        "RAAN(deg)": 219.99660465006582,
        "Satellite Name": "Constellation 1 988",
        "Satellite Number": 988,
        "Semi-Major Axis(m)": 7083131.272910544,
        "Time(s)": 60
    },
    {
        "Altitude(m)": 708172.4268025609,
        "Argument of Periapsis(deg)": 0.0036568283809697427,
        "Eccentricity": 0.0,
        "Inclination(deg)": 45.0,
        "Latitude(deg)": -20.218075376727338,
        "Longitude(deg)": 98.28413976455262,
        "Mean Anomaly(deg)": -29.02453044475615,
        "RAAN(deg)": 219.99654806090027,
        "Satellite Name": "Constellation 1 988",
        "Satellite Number": 988,
        "Semi-Major Axis(m)": 7083131.272910544,
        "Time(s)": 61
    },
    {
        "Altitude(m)": 708159.2724725741,
        "Argument of Periapsis(deg)": 0.003716776387215149,
        "Eccentricity": 0.0,
        "Inclination(deg)": 45.0,
        "Latitude(deg)": -20.177945804733262,
        "Longitude(deg)": 98.32859844477144,
        "Mean Anomaly(deg)": -28.963829304506312,
        "RAAN(deg)": 219.99649147173471,
        "Satellite Name": "Constellation 1 988",
        "Satellite Number": 988,
        "Semi-Major Axis(m)": 7083131.272910544,
        "Time(s)": 62
    },
    {
        "Altitude(m)": 708146.1261029266,
        "Argument of Periapsis(deg)": 0.003776724393460554,
        "Eccentricity": 0.0,
        "Inclination(deg)": 45.0,
        "Latitude(deg)": -20.1378025579946,
        "Longitude(deg)": 98.37303240348291,
        "Mean Anomaly(deg)": -28.903128164256323,
        "RAAN(deg)": 219.9964348825691,
        "Satellite Name": "Constellation 1 988",
        "Satellite Number": 988,
        "Semi-Major Axis(m)": 7083131.272910544,
        "Time(s)": 63
    },
    {
        "Altitude(m)": 708132.987736335,
        "Argument of Periapsis(deg)": 0.003836672399705959,
        "Eccentricity": 0.0,
        "Inclination(deg)": 45.0,
        "Latitude(deg)": -20.0976456723359,
        "Longitude(deg)": 98.41744169859655,
        "Mean Anomaly(deg)": -28.84242702400646,
        "RAAN(deg)": 219.99637829340355,
        "Satellite Name": "Constellation 1 988",
        "Satellite Number": 988,
        "Semi-Major Axis(m)": 7083131.272910544,
        "Time(s)": 64
    },
    {
        "Altitude(m)": 708119.8574154824,
        "Argument of Periapsis(deg)": 0.003896620405951365,
        "Eccentricity": 0.0,
        "Inclination(deg)": 45.0,
        "Latitude(deg)": -20.057475183533146,
        "Longitude(deg)": 98.46182638799522,
        "Mean Anomaly(deg)": -28.781725883756522,
        "RAAN(deg)": 219.996321704238,
        "Satellite Name": "Constellation 1 988",
        "Satellite Number": 988,
        "Semi-Major Axis(m)": 7083131.272910544,
        "Time(s)": 65
    },
    {
        "Altitude(m)": 708106.7351829996,
        "Argument of Periapsis(deg)": 0.003956568412196771,
        "Eccentricity": 0.0,
        "Inclination(deg)": 45.0,
        "Latitude(deg)": -20.017291127314596,
        "Longitude(deg)": 98.50618652953438,
        "Mean Anomaly(deg)": -28.721024743506636,
        "RAAN(deg)": 219.99626511507242,
        "Satellite Name": "Constellation 1 988",
        "Satellite Number": 988,
        "Semi-Major Axis(m)": 7083131.272910544,
        "Time(s)": 66
    },
    {
        "Altitude(m)": 708093.6210814741,
        "Argument of Periapsis(deg)": 0.004016516418442176,
        "Eccentricity": 0.0,
        "Inclination(deg)": 45.0,
        "Latitude(deg)": -19.977093539360354,
        "Longitude(deg)": 98.55052201294556,
        "Mean Anomaly(deg)": -28.660323603256803,
        "RAAN(deg)": 219.99620852590687,
        "Satellite Name": "Constellation 1 988",
        "Satellite Number": 988,
        "Semi-Major Axis(m)": 7083131.272910544,
        "Time(s)": 67
    },
    {
        "Altitude(m)": 708080.5151534436,
        "Argument of Periapsis(deg)": 0.004076464424687581,
        "Eccentricity": 0.0,
        "Inclination(deg)": 45.0,
        "Latitude(deg)": -19.936882455302698,
        "Longitude(deg)": 98.59483323222393,
        "Mean Anomaly(deg)": -28.599622463006817,
        "RAAN(deg)": 219.99615193674126,
        "Satellite Name": "Constellation 1 988",
        "Satellite Number": 988,
        "Semi-Major Axis(m)": 7083131.272910544,
        "Time(s)": 68
    },
    {
        "Altitude(m)": 708067.4174414086,
        "Argument of Periapsis(deg)": 0.004136412430932987,
        "Eccentricity": 0.0,
        "Inclination(deg)": 45.0,
        "Latitude(deg)": -19.8966579107264,
        "Longitude(deg)": 98.63912007704624,
        "Mean Anomaly(deg)": -28.53892132275698,
        "RAAN(deg)": 219.9960953475757,
        "Satellite Name": "Constellation 1 988",
        "Satellite Number": 988,
        "Semi-Major Axis(m)": 7083131.272910544,
        "Time(s)": 69
    },
    {
        "Altitude(m)": 708054.3279878221,
        "Argument of Periapsis(deg)": 0.004196360437178394,
        "Eccentricity": 0.0,
        "Inclination(deg)": 45.0,
        "Latitude(deg)": -19.856419941168404,
        "Longitude(deg)": 98.68338260515901,
        "Mean Anomaly(deg)": -28.478220182507116,
        "RAAN(deg)": 219.99603875841015,
        "Satellite Name": "Constellation 1 988",
        "Satellite Number": 988,
        "Semi-Major Axis(m)": 7083131.272910544,
        "Time(s)": 70
    },
    {
        "Altitude(m)": 708041.246835084,
        "Argument of Periapsis(deg)": 0.004256308443423799,
        "Eccentricity": 0.0,
        "Inclination(deg)": 45.0,
        "Latitude(deg)": -19.816168582118156,
        "Longitude(deg)": 98.72762087428137,
        "Mean Anomaly(deg)": -28.417519042257155,
        "RAAN(deg)": 219.99598216924457,
        "Satellite Name": "Constellation 1 988",
        "Satellite Number": 988,
        "Semi-Major Axis(m)": 7083131.272910544,
        "Time(s)": 71
    },
    {
        "Altitude(m)": 708028.174025552,
        "Argument of Periapsis(deg)": 0.004316256449669204,
        "Eccentricity": 0.0,
        "Inclination(deg)": 45.0,
        "Latitude(deg)": -19.775903869018034,
        "Longitude(deg)": 98.77183494210453,
        "Mean Anomaly(deg)": -28.35681790200729,
        "RAAN(deg)": 219.99592558007902,
        "Satellite Name": "Constellation 1 988",
        "Satellite Number": 988,
        "Semi-Major Axis(m)": 7083131.272910544,
        "Time(s)": 72
    },
    {
        "Altitude(m)": 708015.1096015432,
        "Argument of Periapsis(deg)": 0.00437620445591461,
        "Eccentricity": 0.0,
        "Inclination(deg)": 45.0,
        "Latitude(deg)": -19.73562583726275,
        "Longitude(deg)": 98.81602486629247,
        "Mean Anomaly(deg)": -28.29611676175733,
        "RAAN(deg)": 219.99586899091346,
        "Satellite Name": "Constellation 1 988",
        "Satellite Number": 988,
        "Semi-Major Axis(m)": 7083131.272910544,
        "Time(s)": 73
    },
    {
        "Altitude(m)": 708002.0536053166,
        "Argument of Periapsis(deg)": 0.004436152462160016,
        "Eccentricity": 0.0,
        "Inclination(deg)": 45.0,
        "Latitude(deg)": -19.695334522200223,
        "Longitude(deg)": 98.86019053638412,
        "Mean Anomaly(deg)": -28.23541562150747,
        "RAAN(deg)": 219.99581240174786,
        "Satellite Name": "Constellation 1 988",
        "Satellite Number": 988,
        "Semi-Major Axis(m)": 7083131.272910544,
        "Time(s)": 74
    },
    {
        "Altitude(m)": 707989.0060790956,
        "Argument of Periapsis(deg)": 0.0044961004684054215,
        "Eccentricity": 0.0,
        "Inclination(deg)": 45.0,
        "Latitude(deg)": -19.655029959131124,
        "Longitude(deg)": 98.90433234618187,
        "Mean Anomaly(deg)": -28.17471448125751,
        "RAAN(deg)": 219.9957558125823,
        "Satellite Name": "Constellation 1 988",
        "Satellite Number": 988,
        "Semi-Major Axis(m)": 7083131.272910544,
        "Time(s)": 75
    }
]